NORAD_CAT_ID,OBJECT_NAME,OBJECT_TYPE,EPOCH,MEAN_MOTION,ECCENTRICITY,INCLINATION,RA_OF_ASC_NODE,ARG_OF_PERICENTER,MEAN_ANOMALY,BSTAR,MEAN_MOTION_DOT,MEAN_MOTION_DDOT,TLE_LINE0,TLE_LINE1,TLE_LINE2,SEMIMAJOR_AXIS,PERIOD,APOGEE,PERIGEE,DECAYED
52289.0,STARLINK-3751,PAYLOAD,2022-08-09 22:00:00,15.08809191,0.0002334,53.2137,209.9386,53.6537,206.3803,0.0021847,0.00034624,0.0,0 STARLINK-3751,1 52289U 22041AE  22221.91667824  .00034624  00000-0  21847-2 0  9990,2 52289  53.2137 209.9386 0002334  53.6537 206.3803 15.08809191  1305,6917.975,95.44,541.4540000000002,538.225,0.0
52289.0,STARLINK-3751,PAYLOAD,2022-08-10 06:00:00,15.08826843,0.000251,53.2136,208.444,50.5618,221.0473,-0.00047481,-7.835e-05,0.0,0 STARLINK-3751,1 52289U 22041AE  22222.25001157 -.00007835  00000-0 -47481-3 0  9998,2 52289  53.2136 208.4440 0002510  50.5618 221.0473 15.08826843 18343,6917.920999999999,95.438,541.5219999999998,538.049,0.0
52289.0,STARLINK-3751,PAYLOAD,2022-08-10 14:00:01,15.08846491,0.0002465,53.2133,206.947,50.614,232.568,-0.0020807,-0.00033258,0.0,0 STARLINK-3751,1 52289U 22041AE  22222.58334491 -.00033258  00000-0 -20807-2 0  9994,2 52289  53.2133 206.9470 0002465  50.6140 232.5680 15.08846491  1302,6917.861,95.437,541.431,538.02,0.0
52289.0,STARLINK-3751,PAYLOAD,2022-08-10 22:00:00,15.08819953,0.0002376,53.2135,205.4493,56.0627,238.7088,0.0019836,0.00031405,0.0,0 STARLINK-3751,1 52289U 22041AE  22222.91667824  .00031405  00000-0  19836-2 0  9990,2 52289  53.2135 205.4493 0002376  56.0627 238.7088 15.08819953  1307,6917.941999999999,95.439,541.45,538.163,0.0
52289.0,STARLINK-3751,PAYLOAD,2022-08-11 06:00:02,15.08833645,0.0002556,53.2134,203.9547,52.6211,253.8016,-0.00021888,-3.77e-05,0.0,0 STARLINK-3751,1 52289U 22041AE  22223.25002315 -.00003770  00000-0 -21888-3 0  9993,2 52289  53.2134 203.9547 0002556  52.6211 253.8016 15.08833645 18491,6917.9,95.438,541.533,537.997,0.0
52289.0,STARLINK-3751,PAYLOAD,2022-08-11 14:00:01,15.08855457,0.0002505999999999,53.2132,202.4576,52.7075,265.2348,-0.002223,-0.0003551,0.0,0 STARLINK-3751,1 52289U 22041AE  22223.58334491 -.00035510  00000-0 -22230-2 0  9990,2 52289  53.2132 202.4576 0002506  52.7075 265.2348 15.08855457  1301,6917.833000000001,95.437,541.432,537.965,0.0
52289.0,STARLINK-3751,PAYLOAD,2022-08-12 06:00:00,15.0884424,0.0002617,53.2135,199.4654,54.1673,286.9792,0.00021513,3.138e-05,0.0,0 STARLINK-3751,1 52289U 22041AE  22224.25001157  .00003138  00000-0  21513-3 0  9998,2 52289  53.2135 199.4654 0002617  54.1673 286.9792 15.08844240 18645,6917.8669999999975,95.437,541.543,537.922,0.0
52289.0,STARLINK-3751,PAYLOAD,2022-08-12 14:00:01,15.08881032,0.000251,53.2135,197.968,53.5482,299.1978,-0.0048641,-0.00076965,0.0,0 STARLINK-3751,1 52289U 22041AE  22224.58334491 -.00076965  00000-0 -48641-2 0  9994,2 52289  53.2135 197.9680 0002510  53.5482 299.1978 15.08881032  1307,6917.755,95.435,541.356,537.884,0.0
52289.0,STARLINK-3751,PAYLOAD,2022-08-12 22:00:01,15.08824644,0.0002431,53.2139,196.4706,57.8473,306.5711,0.0017875,0.00028263,0.0,0 STARLINK-3751,1 52289U 22041AE  22224.91668981  .00028263  00000-0  17875-2 0  9996,2 52289  53.2139 196.4706 0002431  57.8473 306.5711 15.08824644  1307,6917.927,95.439,541.474,538.111,0.0
52289.0,STARLINK-3751,PAYLOAD,2022-08-13 04:00:00,15.08839416,0.000256,53.2139,195.3497,54.3789,228.6656,-0.00084175,-0.0001365999999999,0.0,0 STARLINK-3751,1 52289U 22041AE  22225.16667824 -.00013660  00000-0 -84175-3 0  9994,2 52289  53.2139 195.3497 0002560  54.3789 228.6656 15.08839416 18782,6917.882,95.438,541.518,537.976,0.0
52289.0,STARLINK-3751,PAYLOAD,2022-08-13 14:00:01,15.08855671,0.0002485999999999,53.2142,193.4785,53.2796,334.2480000000001,-0.0046853,-0.00074125,0.0,0 STARLINK-3751,1 52289U 22041AE  22225.58334491 -.00074125  00000-0 -46853-2 0  9994,2 52289  53.2142 193.4785 0002486  53.2796 334.2480 15.08855671  1308,6917.831999999999,95.437,541.4169999999998,537.9780000000002,0.0
52289.0,STARLINK-3751,PAYLOAD,2022-08-13 22:00:00,15.08811401,0.0002423,53.2146,191.9814,57.2609,341.8474,0.0013460999999999,0.00021184,0.0,0 STARLINK-3751,1 52289U 22041AE  22225.91667824  .00021184  00000-0  13461-2 0  9994,2 52289  53.2146 191.9814 0002423  57.2609 341.8474 15.08811401  1306,6917.968000000003,95.439,541.509,538.1569999999998,0.0
52289.0,STARLINK-3751,PAYLOAD,2022-08-14 06:00:02,15.08813727,0.0002612,53.2148,190.4868,53.5249,357.2224,0.00089962,0.00014048,0.0,0 STARLINK-3751,1 52289U 22041AE  22226.25002315  .00014048  00000-0  89962-3 0  9991,2 52289  53.2148 190.4868 0002612  53.5249 357.2224 15.08813727 18956,6917.9609999999975,95.439,541.633,538.019,0.0
52289.0,STARLINK-3751,PAYLOAD,2022-08-14 14:00:01,15.08842477,0.0002526999999999,53.215,188.9893,54.67,7.5839,-0.0016069,-0.00025774,0.0,0 STARLINK-3751,1 52289U 22041AE  22226.58334491 -.00025774  00000-0 -16069-2 0  9997,2 52289  53.2150 188.9893 0002527  54.6700   7.5839 15.08842477  1300,6917.873000000001,95.437,541.486,537.99,0.0
52289.0,STARLINK-3751,PAYLOAD,2022-08-14 22:00:00,15.08836632,0.0002508,53.2153,187.4924,58.7608,15.0781,0.001008,0.00015789,0.0,0 STARLINK-3751,1 52289U 22041AE  22226.91667824  .00015789  00000-0  10080-2 0  9993,2 52289  53.2153 187.4924 0002508  58.7608  15.0781 15.08836632  1309,6917.891,95.438,541.491,538.021,0.0
52289.0,STARLINK-3751,PAYLOAD,2022-08-15 14:00:01,15.08859067,0.0002557,53.2155,184.5002,56.7149,40.3135,-0.0017140999999999,-0.00027481,0.0,0 STARLINK-3751,1 52289U 22041AE  22227.58334491 -.00027481  00000-0 -17141-2 0  9997,2 52289  53.2155 184.5002 0002557  56.7149  40.3135 15.08859067  1309,6917.821999999999,95.436,541.456,537.918,0.0
52289.0,STARLINK-3751,PAYLOAD,2022-08-15 22:00:00,15.08856113,0.0002488,53.2157,183.0033,59.8511,48.7844,-0.0017932,-0.00028728,0.0,0 STARLINK-3751,1 52289U 22041AE  22227.91667824 -.00028728  00000-0 -17932-2 0  9996,2 52289  53.2157 183.0033 0002488  59.8511  48.7844 15.08856113  1307,6917.831,95.437,541.4169999999998,537.975,0.0
52289.0,STARLINK-3751,PAYLOAD,2022-08-16 14:00:01,15.08845678,0.0002475,53.2155,180.011,58.0011,73.8206,-0.0010331,-0.00016696,0.0,0 STARLINK-3751,1 52289U 22041AE  22228.58334491 -.00016696  00000-0 -10331-2 0  9998,2 52289  53.2155 180.0110 0002475  58.0011  73.8206 15.08845678 19304,6917.863,95.437,541.44,538.016,0.0
52289.0,STARLINK-3751,PAYLOAD,2022-08-16 22:00:00,15.0885315,0.000246,53.2156,178.5144,61.5082,81.9064,0.00010808,1.433e-05,0.0,0 STARLINK-3751,1 52289U 22041AE  22228.91667824  .00001433  00000-0  10808-3 0  9995,2 52289  53.2156 178.5144 0002460  61.5082  81.9064 15.08853150  1302,6917.84,95.437,541.4069999999998,538.003,0.0
52289.0,STARLINK-3751,PAYLOAD,2022-08-17 06:00:02,15.088444699999998,0.0002557,53.2154,177.0196,56.6639,98.428,0.00020927,3.044e-05,0.0,0 STARLINK-3751,1 52289U 22041AE  22229.25002315  .00003044  00000-0  20927-3 0  9994,2 52289  53.2154 177.0196 0002557  56.6639  98.4280 15.08844470 19409,6917.8669999999975,95.437,541.501,537.9630000000002,0.0
52289.0,STARLINK-3751,PAYLOAD,2022-08-17 16:00:00,15.08813026,0.0002335999999999,53.215,175.1474,60.3197,199.2175,0.0023247,0.00036877,0.0,0 STARLINK-3751,1 52289U 22041AE  22229.66667824  .00036877  00000-0  23247-2 0  9998,2 52289  53.2150 175.1474 0002336  60.3197 199.2175 15.08813026  1305,6917.9630000000025,95.439,541.444,538.212,0.0
52289.0,STARLINK-3751,PAYLOAD,2022-08-18 08:00:01,15.0883867,0.0002463999999999,53.2143,172.1564,57.5251,225.1992,0.0027251,0.00043349,0.0,0 STARLINK-3751,1 52289U 22041AE  22230.33334491  .00043349  00000-0  27251-2 0  9996,2 52289  53.2143 172.1564 0002464  57.5251 225.1992 15.08838670 19560,6917.884,95.438,541.4540000000002,538.045,0.0
52289.0,STARLINK-3751,PAYLOAD,2022-08-18 14:00:01,15.08868047,0.0002334999999999,53.2144,171.0326,62.01600000000001,139.4152,-0.00081709,-0.00013279,0.0,0 STARLINK-3751,1 52289U 22041AE  22230.58334491 -.00013279  00000-0 -81709-3 0  9993,2 52289  53.2144 171.0326 0002335  62.0160 139.4152 15.08868047  1301,6917.795,95.436,541.275,538.044,0.0
52289.0,STARLINK-3751,PAYLOAD,2022-08-18 22:00:00,15.08861795,0.0002299,53.2144,169.5364,63.8116,149.2376,-0.0012073,-0.00019463,0.0,0 STARLINK-3751,1 52289U 22041AE  22230.91667824 -.00019463  00000-0 -12073-2 0  9997,2 52289  53.2144 169.5364 0002299  63.8116 149.2376 15.08861795 19651,6917.814,95.436,541.269,538.0880000000002,0.0
52289.0,STARLINK-3751,PAYLOAD,2022-08-19 14:00:01,15.08807612,0.0002089999999999,53.214,166.5432,59.5334,176.7297,-0.00039393,-6.547e-05,0.0,0 STARLINK-3751,1 52289U 22041AE  22231.58334491 -.00006547  00000-0 -39393-3 0  9996,2 52289  53.2140 166.5432 0002090  59.5334 176.7297 15.08807612  1301,6917.979,95.44,541.29,538.399,0.0
52289.0,STARLINK-3751,PAYLOAD,2022-08-19 22:00:00,15.08817827,0.0002131999999999,53.214,165.0472,61.6486,186.1569,-0.00070432,-0.00011474,0.0,0 STARLINK-3751,1 52289U 22041AE  22231.91667824 -.00011474  00000-0 -70432-3 0  9996,2 52289  53.2140 165.0472 0002132  61.6486 186.1569 15.08817827 19808,6917.948,95.439,541.288,538.3380000000002,0.0
52289.0,STARLINK-3751,PAYLOAD,2022-08-20 14:00:01,15.08814302,0.0002139,53.214,162.054,60.2863,210.6522,0.0012638,0.00019869,0.0,0 STARLINK-3751,1 52289U 22041AE  22232.58334491  .00019869  00000-0  12638-2 0  9998,2 52289  53.2140 162.0540 0002139  60.2863 210.6522 15.08814302  1305,6917.959,95.439,541.304,538.344,0.0
52289.0,STARLINK-3751,PAYLOAD,2022-08-20 22:00:00,15.08843488,0.0002226,53.2141,160.558,62.029,220.4746,-0.0009006999999999,-0.00014596,0.0,0 STARLINK-3751,1 52289U 22041AE  22232.91667824 -.00014596  00000-0 -90070-3 0  9995,2 52289  53.2141 160.5580 0002226  62.0290 220.4746 15.08843488  1308,6917.87,95.437,541.275,538.195,0.0
52289.0,STARLINK-3751,PAYLOAD,2022-08-21 14:00:01,15.08831777,0.0002217,53.2145,157.5647,61.5371,244.1539,0.0016152999999999,0.00025508,0.0,0 STARLINK-3751,1 52289U 22041AE  22233.58334491  .00025508  00000-0  16153-2 0  9992,2 52289  53.2145 157.5647 0002217  61.5371 244.1539 15.08831777  1307,6917.906,95.438,541.304,538.237,0.0
